NORAD_CAT_ID,OBJECT_NAME,OBJECT_TYPE,EPOCH,MEAN_MOTION,ECCENTRICITY,INCLINATION,RA_OF_ASC_NODE,ARG_OF_PERICENTER,MEAN_ANOMALY,BSTAR,MEAN_MOTION_DOT,MEAN_MOTION_DDOT,TLE_LINE0,TLE_LINE1,TLE_LINE2,SEMIMAJOR_AXIS,PERIOD,APOGEE,PERIGEE,DECAYED
53613.0,STARLINK-4655,PAYLOAD,2024-04-20 07:52:27,15.08870303,0.0001558,53.2165,84.4438,79.0298,281.0869,0.00071431,0.00011108,0.0,0 STARLINK-4655,1 53613U 22104AB  24111.32809108  .00011108  00000-0  71431-3 0  9997,2 53613  53.2165  84.4438 0001558  79.0298 281.0869 15.08870303 91714,6917.788,95.436,540.731,538.575,0.0
53613.0,STARLINK-4655,PAYLOAD,2024-04-21 04:32:28,15.08817989,0.0001289,53.217,80.5773,119.863,240.249,-0.0007594,-0.00012346,0.0,0 STARLINK-4655,1 53613U 22104AB  24112.18921990 -.00012346  00000-0 -75940-3 0  9992,2 53613  53.2170  80.5773 0001289 119.8630 240.2490 15.08817989 91272,6917.948,95.439,540.704,538.921,0.0
53613.0,STARLINK-4655,PAYLOAD,2024-04-21 07:43:15,15.08806927,0.0001392,53.2174,79.9832,125.4579,234.6543,-0.00071683,-0.00011668,0.0,0 STARLINK-4655,1 53613U 22104AB  24112.32170240 -.00011668  00000-0 -71683-3 0  9998,2 53613  53.2174  79.9832 0001392 125.4579 234.6543 15.08806927 91865,6917.981,95.44,540.809,538.883,0.0
53613.0,STARLINK-4655,PAYLOAD,2024-04-22 04:23:16,15.08861122,0.0001226,53.2177,76.1205,121.8971,238.214,0.0021591,0.00034261,0.0,0 STARLINK-4655,1 53613U 22104AB  24113.18283021  .00034261  00000-0  21591-2 0  9999,2 53613  53.2177  76.1205 0001226 121.8971 238.2140 15.08861122 91426,6917.816,95.436,540.529,538.833,0.0
53613.0,STARLINK-4655,PAYLOAD,2024-04-23 04:14:03,15.08847288,9.12e-05,53.2175,71.6622,132.4737,227.6332,0.00022188,3.246e-05,0.0,0 STARLINK-4655,1 53613U 22104AB  24114.17642816  .00003246  00000-0  22188-3 0  9993,2 53613  53.2175  71.6622 0000912 132.4737 227.6332 15.08847288 91574,6917.858,95.437,540.354,539.092,0.0
53613.0,STARLINK-4655,PAYLOAD,2024-04-23 20:07:54,15.08840426,9.99e-05,53.2179,68.69,128.3118,231.7964,6.4422e-05,7.38e-06,0.0,0 STARLINK-4655,1 53613U 22104AB  24114.83882961  .00000738  00000-0  64422-4 0  9994,2 53613  53.2179  68.6900 0000999 128.3118 231.7964 15.08840426 91670,6917.879,95.438,540.435,539.053,0.0
53613.0,STARLINK-4655,PAYLOAD,2024-04-24 02:29:27,15.08846082,9.89e-05,53.2177,67.5001,111.4637,248.646,8.2145e-05,1.02e-05,0.0,0 STARLINK-4655,1 53613U 22104AB  24115.10378772  .00001020  00000-0  82145-4 0  9992,2 53613  53.2177  67.5001 0000989 111.4637 248.6460 15.08846082 92286,6917.862,95.437,540.411,539.043,0.0
53613.0,STARLINK-4655,PAYLOAD,2024-04-25 02:20:14,15.08838263,9.88e-05,53.2181,63.0409,93.4105,266.7,0.00028488,4.249e-05,0.0,0 STARLINK-4655,1 53613U 22104AB  24116.09739285  .00004249  00000-0  28488-3 0  9996,2 53613  53.2181  63.0409 0000988  93.4105 266.7000 15.08838263 91868,6917.886,95.438,540.434,539.067,0.0
53613.0,STARLINK-4655,PAYLOAD,2024-04-26 03:46:24,15.08841115,0.000103,53.2178,58.2816,94.8143,265.2967,6.4287e-05,7.36e-06,0.0,0 STARLINK-4655,1 53613U 22104AB  24117.15723309  .00000736  00000-0  64287-4 0  9999,2 53613  53.2178  58.2816 0001030  94.8143 265.2967 15.08841115 92023,6917.877,95.437,540.455,539.029,0.0
53613.0,STARLINK-4655,PAYLOAD,2024-04-26 13:18:42,15.08859616,9.11e-05,53.2187,56.4925,87.9153,272.1943,0.00031837,4.785e-05,0.0,0 STARLINK-4655,1 53613U 22104AB  24117.55466001  .00004785  00000-0  31837-3 0  9998,2 53613  53.2187  56.4925 0000911  87.9153 272.1943 15.08859616 92087,6917.82,95.436,540.316,539.055,0.0
53613.0,STARLINK-4655,PAYLOAD,2024-04-27 02:01:48,15.08834557,8.49e-05,53.2145,54.118,65.3378,294.7702,3.9713e-05,3.44e-06,0.0,0 STARLINK-4655,1 53613U 22104AB  24118.08459445  .00000344  00000-0  39713-4 0  9990,2 53613  53.2145  54.1180 0000849  65.3378 294.7702 15.08834557 92167,6917.897,95.438,540.349,539.175,0.0
53613.0,STARLINK-4655,PAYLOAD,2024-04-27 13:09:29,15.08865815,8.9e-05,53.2162,52.0355,60.611,299.4971,0.00044152,6.751e-05,0.0,0 STARLINK-4655,1 53613U 22104AB  24118.54825559  .00006751  00000-0  44152-3 0  9994,2 53613  53.2162  52.0355 0000890  60.6110 299.4971 15.08865815 92234,6917.801,95.436,540.282,539.051,0.0
53613.0,STARLINK-4655,PAYLOAD,2024-04-27 22:41:50,15.08821292,0.0001115,53.2173,50.2505,88.7475,271.3645,-0.00031753,-5.335e-05,0.0,0 STARLINK-4655,1 53613U 22104AB  24118.94572002 -.00005335  00000-0 -31753-3 0  9992,2 53613  53.2173  50.2505 0001115  88.7475 271.3645 15.08821292 92866,6917.938,95.439,540.574,539.031,0.0
53613.0,STARLINK-4655,PAYLOAD,2024-04-28 01:52:36,15.08825179,0.0001227,53.218,49.6535,94.6311,265.4821,-0.00023107,-3.962e-05,0.0,0 STARLINK-4655,1 53613U 22104AB  24119.07819895 -.00003962  00000-0 -23107-3 0  9999,2 53613  53.2180  49.6535 0001227  94.6311 265.4821 15.08825179 92316,6917.926,95.438,540.64,538.942,0.0
53613.0,STARLINK-4655,PAYLOAD,2024-04-28 19:21:50,15.08834661,0.000152,53.2174,46.385,83.1278,276.9887,0.00014367,1.999e-05,0.0,0 STARLINK-4655,1 53613U 22104AB  24119.80683864  .00001999  00000-0  14367-3 0  9999,2 53613  53.2174  46.3850 0001520  83.1278 276.9887 15.08834661 92421,6917.897,95.438,540.813,538.71,0.0
53613.0,STARLINK-4655,PAYLOAD,2024-04-28 22:32:37,15.08838339,0.0001532,53.2175,45.7909,82.0718,278.0448,0.00020656,3.001e-05,0.0,0 STARLINK-4655,1 53613U 22104AB  24119.93931758  .00003001  00000-0  20656-3 0  9995,2 53613  53.2175  45.7909 0001532  82.0718 278.0448 15.08838339 93018,6917.885,95.438,540.81,538.691,0.0
53613.0,STARLINK-4655,PAYLOAD,2024-04-29 01:43:23,15.08841451,0.0001447,53.2182,45.1948,81.6249,278.4907,0.00066519,0.00010315,0.0,0 STARLINK-4655,1 53613U 22104AB  24120.07179945  .00010315  00000-0  66519-3 0  9998,2 53613  53.2182  45.1948 0001447  81.6249 278.4907 15.08841451 93037,6917.876,95.437,540.742,538.74,0.0
53613.0,STARLINK-4655,PAYLOAD,2024-04-29 22:23:24,15.08844673,0.0001323,53.2175,41.3307,79.5926,280.5215,0.00022538,3.301e-05,0.0,0 STARLINK-4655,1 53613U 22104AB  24120.93291864  .00003301  00000-0  22538-3 0  9998,2 53613  53.2175  41.3307 0001323  79.5926 280.5215 15.08844673 93166,6917.866,95.437,540.646,538.816,0.0
53613.0,STARLINK-4655,PAYLOAD,2024-04-30 01:34:10,15.08844034,0.0001327,53.2175,40.7369,77.1948,282.9192,0.00028977,4.327e-05,0.0,0 STARLINK-4655,1 53613U 22104AB  24121.06539911  .00004327  00000-0  28977-3 0  9993,2 53613  53.2175  40.7369 0001327  77.1948 282.9192 15.08844034 92619,6917.868,95.437,540.651,538.815,0.0
53613.0,STARLINK-4655,PAYLOAD,2024-04-30 11:06:28,15.08856319,0.0001366,53.2175,38.9523,79.0631,281.0515,0.00040015,6.089e-05,0.0,0 STARLINK-4655,1 53613U 22104AB  24121.46283251  .00006089  00000-0  40015-3 0  9994,2 53613  53.2175  38.9523 0001366  79.0631 281.0515 15.08856319 93241,6917.831,95.437,540.64,538.751,0.0
53613.0,STARLINK-4655,PAYLOAD,2024-04-30 22:14:11,15.08836859,0.0001382,53.2174,36.8703,86.1859,273.9291,-0.0001073,-1.995e-05,0.0,0 STARLINK-4655,1 53613U 22104AB  24121.92651762 -.00001995  00000-0 -10730-3 0  9995,2 53613  53.2174  36.8703 0001382  86.1859 273.9291 15.08836859 93312,6917.89,95.438,540.711,538.799,0.0
53613.0,STARLINK-4655,PAYLOAD,2024-05-01 01:24:57,15.08840739,0.0001438,53.2185,36.2774,92.3045,267.8112,1.8794e-05,1.1e-07,0.0,0 STARLINK-4655,1 53613U 22104AB  24122.05899719  .00000011  00000-0  18794-4 0  9991,2 53613  53.2185  36.2774 0001438  92.3045 267.8112 15.08840739 92768,6917.878,95.438,540.738,538.748,0.0
53613.0,STARLINK-4655,PAYLOAD,2024-05-02 02:51:07,15.08839426,0.0001387,53.2178,31.5188,87.1133,273.0018,8.74e-05,1.103e-05,0.0,0 STARLINK-4655,1 53613U 22104AB  24123.11883977  .00001103  00000-0  87400-4 0  9991,2 53613  53.2178  31.5188 0001387  87.1133 273.0018 15.08839426 92923,6917.882,95.438,540.707,538.788,0.0
53613.0,STARLINK-4655,PAYLOAD,2024-05-02 10:48:03,15.08842348,0.0001386,53.2179,30.0319,86.8051,273.31,0.00015675,2.208e-05,0.0,0 STARLINK-4655,1 53613U 22104AB  24123.45003942  .00002208  00000-0  15675-3 0  9995,2 53613  53.2179  30.0319 0001386  86.8051 273.3100 15.08842348 93549,6917.873,95.437,540.697,538.779,0.0
53613.0,STARLINK-4655,PAYLOAD,2024-05-03 02:41:54,15.08854935,0.0001319,53.2174,27.0576,96.9083,263.2059,0.00040666,6.193e-05,0.0,0 STARLINK-4655,1 53613U 22104AB  24124.11243452  .00006193  00000-0  40666-3 0  9996,2 53613  53.2174  27.0576 0001319  96.9083 263.2059 15.08854935 93072,6917.835,95.437,540.612,538.787,0.0
53613.0,STARLINK-4655,PAYLOAD,2024-05-03 10:38:49,15.08865021,0.0001557,53.2174,25.5704,70.4137,289.7023,0.00054772,8.446e-05,0.0,0 STARLINK-4655,1 53613U 22104AB  24124.44362889  .00008446  00000-0  54772-3 0  9994,2 53613  53.2174  25.5704 0001557  70.4137 289.7023 15.08865021 93699,6917.804,95.436,540.746,538.592,0.0
53613.0,STARLINK-4655,PAYLOAD,2024-05-03 23:21:56,15.08820172,0.0001312,53.2167,23.1919,76.7427,283.3711,-0.0003151,-5.296e-05,0.0,0 STARLINK-4655,1 53613U 22104AB  24124.97356716 -.00005296  00000-0 -31510-3 0  9991,2 53613  53.2167  23.1919 0001312  76.7427 283.3711 15.08820172 93774,6917.941,95.439,540.714,538.898,0.0
53613.0,STARLINK-4655,PAYLOAD,2024-05-04 02:32:42,15.08825479,0.0001452,53.2169,22.5972,76.9832,283.1322,-0.00018238,-3.188e-05,0.0,0 STARLINK-4655,1 53613U 22104AB  24125.10604690 -.00003188  00000-0 -18238-3 0  9994,2 53613  53.2169  22.5972 0001452  76.9832 283.1322 15.08825479 93226,6917.925,95.438,540.794,538.785,0.0
53613.0,STARLINK-4655,PAYLOAD,2024-05-04 10:29:38,15.08833026,0.0001468,53.2178,21.1114,75.8419,284.2736,1.4926e-05,-5e-07,0.0,0 STARLINK-4655,1 53613U 22104AB  24125.43724686 -.00000050  00000-0  14926-4 0  9993,2 53613  53.2178  21.1114 0001468  75.8419 284.2736 15.08833026 93278,6917.902,95.438,540.782,538.751,0.0
53613.0,STARLINK-4655,PAYLOAD,2024-05-05 02:23:29,15.0885498,0.0001424,53.2174,18.1368,74.5045,285.6104,0.0012933,0.00020363,0.0,0 STARLINK-4655,1 53613U 22104AB  24126.09964782  .00020363  00000-0  12933-2 0  9991,2 53613  53.2174  18.1368 0001424  74.5045 285.6104 15.08854980 93371,6917.835,95.437,540.685,538.715,0.0
